NORAD_CAT_ID,OBJECT_NAME,OBJECT_TYPE,EPOCH,MEAN_MOTION,ECCENTRICITY,INCLINATION,RA_OF_ASC_NODE,ARG_OF_PERICENTER,MEAN_ANOMALY,BSTAR,MEAN_MOTION_DOT,MEAN_MOTION_DDOT,TLE_LINE0,TLE_LINE1,TLE_LINE2,SEMIMAJOR_AXIS,PERIOD,APOGEE,PERIGEE,DECAYED
53852.0,STARLINK-4797,PAYLOAD,2023-02-02 04:50:38,15.08839578,0.0001378,53.2188,328.6956,95.392,264.723,7.902e-05,9.7e-06,0.0,0 STARLINK-4797,1 53852U 22114AL  23033.20183931  .00000970  00000-0  79020-4 0  9999,2 53852  53.2188 328.6956 0001378  95.3920 264.7230 15.08839578 22224,6917.882,95.438,540.7,538.793,0.0
53852.0,STARLINK-4797,PAYLOAD,2023-02-03 04:41:25,15.08857951,0.0001392,53.2189,324.2336,82.6613,277.4537,0.00057803,8.928e-05,0.0,0 STARLINK-4797,1 53852U 22114AL  23034.19543359  .00008928  00000-0  57803-3 0  9997,2 53852  53.2189 324.2336 0001392  82.6613 277.4537 15.08857951 21835,6917.826,95.436,540.653,538.728,0.0
53852.0,STARLINK-4797,PAYLOAD,2023-02-03 18:59:53,15.08846131,0.0001286,53.2181,321.558,88.2906,271.8234,0.0002206,3.225e-05,0.0,0 STARLINK-4797,1 53852U 22114AL  23034.79159636  .00003225  00000-0  22060-3 0  9996,2 53852  53.2181 321.5580 0001286  88.2906 271.8234 15.08846131 21927,6917.862,95.437,540.616,538.837,0.0
53852.0,STARLINK-4797,PAYLOAD,2023-02-04 04:32:12,15.08856461,0.000135,53.2183,319.7732,94.4781,265.6365,0.00069581,0.00010808,0.0,0 STARLINK-4797,1 53852U 22114AL  23035.18903295  .00010808  00000-0  69581-3 0  9992,2 53852  53.2183 319.7732 0001350  94.4781 265.6365 15.08856461 22529,6917.83,95.437,540.629,538.761,0.0
53852.0,STARLINK-4797,PAYLOAD,2023-02-04 22:01:27,15.08841336,0.0001592,53.2191,316.5011,108.1215,251.9951,0.00051211,7.872e-05,0.0,0 STARLINK-4797,1 53852U 22114AL  23035.91767667  .00007872  00000-0  51211-3 0  9992,2 53852  53.2191 316.5011 0001592 108.1215 251.9951 15.08841336 22092,6917.876,95.437,540.843,538.64,0.0
53852.0,STARLINK-4797,PAYLOAD,2023-02-05 04:22:59,15.08848646,0.0001419,53.2188,315.3138,81.4773,278.638,0.0006656,0.00010323,0.0,0 STARLINK-4797,1 53852U 22114AL  23036.18263701  .00010323  00000-0  66560-3 0  9990,2 53852  53.2188 315.3138 0001419  81.4773 278.6380 15.08848646 22672,6917.854,95.437,540.701,538.737,0.0
53852.0,STARLINK-4797,PAYLOAD,2023-02-05 21:52:14,15.08834727,0.0001358,53.2185,312.0415,90.0004,270.1144,0.00043911,6.706e-05,0.0,0 STARLINK-4797,1 53852U 22114AL  23036.91128213  .00006706  00000-0  43911-3 0  9994,2 53852  53.2185 312.0415 0001358  90.0004 270.1144 15.08834727 22788,6917.897,95.438,540.701,538.822,0.0
53852.0,STARLINK-4797,PAYLOAD,2023-02-06 04:13:47,15.08851137,0.0001221,53.2192,310.8533,83.6998,276.4133,0.00078568,0.00012242,0.0,0 STARLINK-4797,1 53852U 22114AL  23037.17623957  .00012242  00000-0  78568-3 0  9996,2 53852  53.2192 310.8533 0001221  83.6998 276.4133 15.08851137 22288,6917.846,95.437,540.556,538.867,0.0
53852.0,STARLINK-4797,PAYLOAD,2023-02-06 18:32:15,15.08845908,0.0001181,53.218,308.177,94.9937,265.119,0.00066482,0.0001031,0.0,0 STARLINK-4797,1 53852U 22114AL  23037.77239974  .00010310  00000-0  66482-3 0  9990,2 53852  53.2180 308.1770 0001181  94.9937 265.1190 15.08845908 22378,6917.862,95.437,540.544,538.91,0.0
53852.0,STARLINK-4797,PAYLOAD,2023-02-07 04:04:33,15.08881318,0.0001113,53.2183,306.3947,95.0132,265.0988,0.0019027,0.00030158,0.0,0 STARLINK-4797,1 53852U 22114AL  23038.16983224  .00030158  00000-0  19027-2 0  9992,2 53852  53.2183 306.3947 0001113  95.0132 265.0988 15.08881318 22437,6917.754,95.435,540.389,538.849,0.0
53852.0,STARLINK-4797,PAYLOAD,2023-02-07 21:33:48,15.08841669,0.000112,53.2185,303.1233,90.8336,269.2785,0.00067155,0.00010416,0.0,0 STARLINK-4797,1 53852U 22114AL  23038.89847703  .00010416  00000-0  67155-3 0  9994,2 53852  53.2185 303.1233 0001120  90.8336 269.2785 15.08841669 23087,6917.875,95.437,540.515,538.965,0.0
53852.0,STARLINK-4797,PAYLOAD,2023-02-07 23:09:11,15.08848954,0.0001306,53.2185,302.8258,106.5751,253.5384,0.00055332,8.531e-05,0.0,0 STARLINK-4797,1 53852U 22114AL  23038.96471551  .00008531  00000-0  55332-3 0  9995,2 53852  53.2185 302.8258 0001306 106.5751 253.5384 15.08848954 22558,6917.853,95.437,540.621,538.815,0.0
53852.0,STARLINK-4797,PAYLOAD,2023-02-08 21:24:35,15.08838864,0.0001048,53.2171,298.663,89.9614,270.1498,0.0013354,0.00021028,0.0,0 STARLINK-4797,1 53852U 22114AL  23039.89208247  .00021028  00000-0  13354-2 0  9991,2 53852  53.2171 298.6630 0001048  89.9614 270.1498 15.08838864 23230,6917.884,95.438,540.474,539.024,0.0
53852.0,STARLINK-4797,PAYLOAD,2023-02-09 03:46:08,15.08860299,0.000156,53.2167,297.4739,84.3017,275.8153,0.0015633,0.00024693,0.0,0 STARLINK-4797,1 53852U 22114AL  23040.15704153  .00024693  00000-0  15633-2 0  9992,2 53852  53.2167 297.4739 0001560  84.3017 275.8153 15.08860299 22738,6917.818,95.436,540.763,538.604,0.0
53852.0,STARLINK-4797,PAYLOAD,2023-02-09 22:50:46,15.08849689,0.0001273,53.2174,293.9025,75.9056,284.2077,0.0014892,0.00023498,0.0,0 STARLINK-4797,1 53852U 22114AL  23040.95192683  .00023498  00000-0  14892-2 0  9997,2 53852  53.2174 293.9025 0001273  75.9056 284.2077 15.08849689 22857,6917.851,95.437,540.596,538.835,0.0
53852.0,STARLINK-4797,PAYLOAD,2023-02-10 02:01:32,15.08859408,0.0001297,53.217,293.3087,99.1409,260.973,0.0018639,0.00029516,0.0,0 STARLINK-4797,1 53852U 22114AL  23041.08440451  .00029516  00000-0  18639-2 0  9991,2 53852  53.2170 293.3087 0001297  99.1409 260.9730 15.08859408 23411,6917.821,95.436,540.583,538.789,0.0
53852.0,STARLINK-4797,PAYLOAD,2023-02-10 22:41:33,15.0886163,0.0001567,53.2181,289.4438,93.2588,266.8584,0.0017848,0.00028248,0.0,0 STARLINK-4797,1 53852U 22114AL  23041.94552638  .00028248  00000-0  17848-2 0  9999,2 53852  53.2181 289.4438 0001567  93.2588 266.8584 15.08861630 23009,6917.814,95.436,540.763,538.595,0.0
53852.0,STARLINK-4797,PAYLOAD,2023-02-11 22:32:21,15.08851504,0.0001789,53.2177,284.9836,81.7289,278.3906,0.001849,0.00029271,0.0,0 STARLINK-4797,1 53852U 22114AL  23042.93913730  .00029271  00000-0  18490-2 0  9994,2 53852  53.2177 284.9836 0001789  81.7289 278.3906 15.08851504 23153,6917.845,95.437,540.948,538.473,0.0
53852.0,STARLINK-4797,PAYLOAD,2023-02-13 01:33:54,15.08850717,0.0001192,53.2172,279.9271,72.569,287.5433,0.00059593,9.212e-05,0.0,0 STARLINK-4797,1 53852U 22114AL  23044.06521604  .00009212  00000-0  59593-3 0  9998,2 53852  53.2172 279.9271 0001192  72.5690 287.5433 15.08850717 23328,6917.848,95.437,540.537,538.888,0.0
53852.0,STARLINK-4797,PAYLOAD,2023-02-14 01:24:41,15.08852337,0.0001274,53.218,275.468,96.0749,264.0389,0.00040175,6.114e-05,0.0,0 STARLINK-4797,1 53852U 22114AL  23045.05881337  .00006114  00000-0  40175-3 0  9994,2 53852  53.2180 275.4680 0001274  96.0749 264.0389 15.08852337 23475,6917.843,95.437,540.589,538.826,0.0
53852.0,STARLINK-4797,PAYLOAD,2023-02-14 14:07:46,15.08841381,0.000147,53.2173,273.0891,94.8587,265.2573,4.4045e-05,4.13e-06,0.0,0 STARLINK-4797,1 53852U 22114AL  23045.58873506  .00000413  00000-0  44045-4 0  9998,2 53852  53.2173 273.0891 0001470  94.8587 265.2573 15.08841381 24093,6917.876,95.437,540.758,538.724,0.0
53852.0,STARLINK-4797,PAYLOAD,2023-02-14 15:43:09,15.08837745,0.000179,53.2173,272.7917,114.9351,245.1827,0.00014639,2.042e-05,0.0,0 STARLINK-4797,1 53852U 22114AL  23045.65497684  .00002042  00000-0  14639-3 0  9990,2 53852  53.2173 272.7917 0001790 114.9351 245.1827 15.08837745 23565,6917.887,95.438,540.991,538.514,0.0
53852.0,STARLINK-4797,PAYLOAD,2023-02-14 22:04:42,15.08846844,0.0001695,53.2174,271.6025,110.8403,249.277,6.9326e-05,8.16e-06,0.0,0 STARLINK-4797,1 53852U 22114AL  23045.91993234  .00000816  00000-0  69326-4 0  9992,2 53852  53.2174 271.6025 0001695 110.8403 249.2770 15.08846844 23608,6917.859,95.437,540.897,538.552,0.0
53852.0,STARLINK-4797,PAYLOAD,2023-02-15 13:58:33,15.08842003,0.0001123,53.2149,268.6284,90.3899,269.7222,9.9111e-05,1.29e-05,0.0,0 STARLINK-4797,1 53852U 22114AL  23046.58233479  .00001290  00000-0  99111-4 0  9996,2 53852  53.2149 268.6284 0001123  90.3899 269.7222 15.08842003 24243,6917.874,95.437,540.516,538.962,0.0
53852.0,STARLINK-4797,PAYLOAD,2023-02-15 21:55:29,15.08847494,0.0001184,53.2161,267.1425,95.2721,264.8406,0.00021241,3.095e-05,0.0,0 STARLINK-4797,1 53852U 22114AL  23046.91353135  .00003095  00000-0  21241-3 0  9998,2 53852  53.2161 267.1425 0001184  95.2721 264.8406 15.08847494 24297,6917.857,95.437,540.542,538.903,0.0
53852.0,STARLINK-4797,PAYLOAD,2023-02-15 23:30:51,15.08856823,0.0001346,53.2172,266.8448,100.8565,259.2579,0.00036481,5.525e-05,0.0,0 STARLINK-4797,1 53852U 22114AL  23046.97976667  .00005525  00000-0  36481-3 0  9997,2 53852  53.2172 266.8448 0001346 100.8565 259.2579 15.08856823 23765,6917.829,95.436,540.625,538.763,0.0
53852.0,STARLINK-4797,PAYLOAD,2023-02-16 07:27:48,15.08843619,0.000169,53.2173,265.3581,85.1368,274.9817,0.00012217,1.657e-05,0.0,0 STARLINK-4797,1 53852U 22114AL  23047.31097302  .00001657  00000-0  12217-3 0  9999,2 53852  53.2173 265.3581 0001690  85.1368 274.9817 15.08843619 23810,6917.869,95.437,540.903,538.565,0.0
53852.0,STARLINK-4797,PAYLOAD,2023-02-16 13:49:20,15.08842288,0.0001817,53.2166,264.1696,82.1574,277.9624,8.7743e-05,1.109e-05,0.0,0 STARLINK-4797,1 53852U 22114AL  23047.57593412  .00001109  00000-0  87743-4 0  9999,2 53852  53.2166 264.1696 0001817  82.1574 277.9624 15.08842288 24397,6917.873,95.437,540.995,538.481,0.0
53852.0,STARLINK-4797,PAYLOAD,2023-02-16 15:24:44,15.08831579,0.0001101,53.2159,263.8718,82.476,277.6357,-0.00010629,-1.979e-05,0.0,0 STARLINK-4797,1 53852U 22114AL  23047.64217692 -.00001979  00000-0 -10629-3 0  9995,2 53852  53.2159 263.8718 0001101  82.4760 277.6357 15.08831579 23868,6917.906,95.438,540.533,539.009,0.0
53852.0,STARLINK-4797,PAYLOAD,2023-02-16 21:46:16,15.08840347,0.0001137,53.2175,262.6823,82.0622,278.0499,2.6572e-05,1.35e-06,0.0,0 STARLINK-4797,1 53852U 22114AL  23047.90713390  .00000135  00000-0  26572-4 0  9996,2 53852  53.2175 262.6823 0001137  82.0622 278.0499 15.08840347 24442,6917.879,95.438,540.531,538.958,0.0
